NORAD_CAT_ID,OBJECT_NAME,OBJECT_TYPE,EPOCH,MEAN_MOTION,ECCENTRICITY,INCLINATION,RA_OF_ASC_NODE,ARG_OF_PERICENTER,MEAN_ANOMALY,BSTAR,MEAN_MOTION_DOT,MEAN_MOTION_DDOT,TLE_LINE0,TLE_LINE1,TLE_LINE2,SEMIMAJOR_AXIS,PERIOD,APOGEE,PERIGEE,DECAYED
49166.0,STARLINK-3089,PAYLOAD,2023-02-26 08:39:58,14.98335501,0.0003059,69.9998,186.4241,271.9016,88.1793,0.00012521,1.401e-05,0.0,0 STARLINK-3089,1 49166U 21082AN  23057.36109722  .00001401  00000-0  12521-3 0  9996,2 49166  69.9998 186.4241 0003059 271.9016  88.1793 14.98335501 81809,6950.176,96.107,574.167,569.915,0.0
49166.0,STARLINK-3089,PAYLOAD,2023-02-26 11:52:14,14.98337663,0.0003056,69.9997,186.0873,269.9581,90.1228,0.00015482,1.755e-05,0.0,0 STARLINK-3089,1 49166U 21082AN  23057.49461474  .00001755  00000-0  15482-3 0  9996,2 49166  69.9997 186.0873 0003056 269.9581  90.1228 14.98337663 81825,6950.169,96.107,574.158,569.91,0.0
49166.0,STARLINK-3089,PAYLOAD,2023-02-26 16:40:38,14.98344308,0.0003104,69.9995,185.5823,270.3506,89.7298,0.00019347,2.217e-05,0.0,0 STARLINK-3089,1 49166U 21082AN  23057.69488907  .00002217  00000-0  19347-3 0  9996,2 49166  69.9995 185.5823 0003104 270.3506  89.7298 14.98344308 81857,6950.149,96.106,574.171,569.856,0.0
49166.0,STARLINK-3089,PAYLOAD,2023-02-27 02:17:27,14.98335353,0.0002563,70.0019,184.5755,295.1046,64.9847,7.1849e-05,7.65e-06,0.0,0 STARLINK-3089,1 49166U 21082AN  23058.09545970  .00000765  00000-0  71849-4 0  9997,2 49166  70.0019 184.5755 0002563 295.1046  64.9847 14.98335353 81914,6950.176,96.107,573.823,570.26,0.0
49166.0,STARLINK-3089,PAYLOAD,2023-02-27 19:54:55,14.98345049,0.0003201,69.9997,182.7256,254.5297,105.5508,0.00029679,3.451e-05,0.0,0 STARLINK-3089,1 49166U 21082AN  23058.82980411  .00003451  00000-0  29679-3 0  9999,2 49166  69.9997 182.7256 0003201 254.5297 105.5508 14.98345049 82021,6950.146,96.106,574.236,569.787,0.0
49166.0,STARLINK-3089,PAYLOAD,2023-02-28 11:56:16,14.98336004,0.0002677,70.0011,181.0391,262.3619,97.7237,-5.4133e-05,-7.39e-06,0.0,0 STARLINK-3089,1 49166U 21082AN  23059.49741534 -.00000739  00000-0 -54133-4 0  9996,2 49166  70.0011 181.0391 0002677 262.3619  97.7237 14.98336004 82127,6950.174,96.107,573.9,570.179,0.0
49166.0,STARLINK-3089,PAYLOAD,2023-02-28 15:08:32,14.98336386,0.0002663,70.0004,180.7019,264.4237,95.6618,-4.2748e-05,-6.03e-06,0.0,0 STARLINK-3089,1 49166U 21082AN  23059.63093471 -.00000603  00000-0 -42748-4 0  9991,2 49166  70.0004 180.7019 0002663 264.4237  95.6618 14.98336386 82141,6950.173,96.107,573.889,570.187,0.0
49166.0,STARLINK-3089,PAYLOAD,2023-02-28 18:20:48,14.98339117,0.0002627,70.0008,180.3657,259.6169,100.4694,-2.7932e-05,-4.26e-06,0.0,0 STARLINK-3089,1 49166U 21082AN  23059.76445163 -.00000426  00000-0 -27932-4 0  9995,2 49166  70.0008 180.3657 0002627 259.6169 100.4694 14.98339117 82165,6950.165,96.106,573.856,570.204,0.0
49166.0,STARLINK-3089,PAYLOAD,2023-03-01 00:45:21,14.98328416,0.0001818,70.0035,179.6902,295.7748,64.3223,-0.00016934,-2.113e-05,0.0,0 STARLINK-3089,1 49166U 21082AN  23060.03150445 -.00002113  00000-0 -16934-3 0  9997,2 49166  70.0035 179.6902 0001818 295.7748  64.3223 14.98328416 82205,6950.198,96.107,573.326,570.799,0.0
49166.0,STARLINK-3089,PAYLOAD,2023-03-01 10:22:10,14.9831457,0.0002751,70.0029,178.6857,261.5875,98.4972,-4.8558e-05,-6.72e-06,0.0,0 STARLINK-3089,1 49166U 21082AN  23060.43206988 -.00000672  00000-0 -48558-4 0  9991,2 49166  70.0029 178.6857 0002751 261.5875  98.4972 14.98314570 82266,6950.241,96.108,574.018,570.194,0.0
49166.0,STARLINK-3089,PAYLOAD,2023-03-01 19:58:59,14.98316144,0.0002788,69.9998,177.6708,268.2307,91.8533,-0.00012634,-1.6e-05,0.0,0 STARLINK-3089,1 49166U 21082AN  23060.83263402 -.00001600  00000-0 -12634-3 0  9996,2 49166  69.9998 177.6708 0002788 268.2307  91.8533 14.98316144 82322,6950.236,96.108,574.038,570.163,0.0
49166.0,STARLINK-3089,PAYLOAD,2023-03-02 00:47:22,14.98331198,0.0003587,69.9991,177.1679,260.1246,99.9508,-9.2274e-05,-1.194e-05,0.0,0 STARLINK-3089,1 49166U 21082AN  23061.03290184 -.00001194  00000-0 -92274-4 0  9993,2 49166  69.9991 177.1679 0003587 260.1246  99.9508 14.98331198 82358,6950.189,96.107,574.547,569.561,0.0
49166.0,STARLINK-3089,PAYLOAD,2023-03-02 15:12:34,14.98337743,0.0002786,70.0002,175.653,261.6967,98.3876,0.00020623,2.369e-05,0.0,0 STARLINK-3089,1 49166U 21082AN  23061.63373482  .00002369  00000-0  20623-3 0  9993,2 49166  70.0002 175.6530 0002786 261.6967  98.3876 14.98337743 82442,6950.169,96.107,573.97,570.098,0.0
49166.0,STARLINK-3089,PAYLOAD,2023-03-03 08:50:03,14.98328426,0.0002979,69.9998,173.8005,265.2106,94.8713,0.00039111,4.577e-05,0.0,0 STARLINK-3089,1 49166U 21082AN  23062.36809742  .00004577  00000-0  39111-3 0  9992,2 49166  69.9998 173.8005 0002979 265.2106  94.8713 14.98328426 82550,6950.198,96.107,574.133,569.992,0.0
49166.0,STARLINK-3089,PAYLOAD,2023-03-03 10:26:11,14.98329326,0.000288,70.0,173.633,263.6196,96.4635,0.00035811,4.182e-05,0.0,0 STARLINK-3089,1 49166U 21082AN  23062.43485726  .00004182  00000-0  35811-3 0  9997,2 49166  70.0000 173.6330 0002880 263.6196  96.4635 14.98329326 82560,6950.195,96.107,574.062,570.058,0.0
49166.0,STARLINK-3089,PAYLOAD,2023-03-03 12:02:19,14.98327624,0.0003032,69.9999,173.4644,263.3649,96.7165,0.00039601,4.635e-05,0.0,0 STARLINK-3089,1 49166U 21082AN  23062.50161720  .00004635  00000-0  39601-3 0  9994,2 49166  69.9999 173.4644 0003032 263.3649  96.7165 14.98327624 82571,6950.2,96.107,574.173,569.958,0.0
49166.0,STARLINK-3089,PAYLOAD,2023-03-04 10:28:13,14.98328175,0.0003008,70.0005,171.1086,265.36,94.7215,-9.4667e-05,-1.222e-05,0.0,0 STARLINK-3089,1 49166U 21082AN  23063.43626556 -.00001222  00000-0 -94667-4 0  9995,2 49166  70.0005 171.1086 0003008 265.3600  94.7215 14.98328175 82711,6950.199,96.107,574.154,569.973,0.0
49166.0,STARLINK-3089,PAYLOAD,2023-03-04 12:04:21,14.98329784,0.0002974,70.0006,170.9394,260.4459,99.6364,-5.8636e-05,-7.93e-06,0.0,0 STARLINK-3089,1 49166U 21082AN  23063.50302338 -.00000793  00000-0 -58636-4 0  9990,2 49166  70.0006 170.9394 0002974 260.4459  99.6364 14.98329784 82727,6950.194,96.107,574.126,569.992,0.0
49166.0,STARLINK-3089,PAYLOAD,2023-03-04 16:52:44,14.98338612,0.0002296,70.0014,170.4356,253.2835,106.8072,3.9358e-05,3.77e-06,0.0,0 STARLINK-3089,1 49166U 21082AN  23063.70329698  .00000377  00000-0  39358-4 0  9996,2 49166  70.0014 170.4356 0002296 253.2835 106.8072 14.98338612 82754,6950.166,96.106,573.627,570.436,0.0
49166.0,STARLINK-3089,PAYLOAD,2023-03-05 00:53:25,14.98325232,0.0002246,70.0021,169.5935,253.2799,106.8114,0.00019644,2.251e-05,0.0,0 STARLINK-3089,1 49166U 21082AN  23064.03710325  .00002251  00000-0  19644-3 0  9992,2 49166  70.0021 169.5935 0002246 253.2799 106.8114 14.98325232 82805,6950.208,96.107,573.634,570.512,0.0
49166.0,STARLINK-3089,PAYLOAD,2023-03-05 07:17:57,14.98335448,0.000243,70.0015,168.92,273.3092,86.7789,3.4045e-05,3.13e-06,0.0,0 STARLINK-3089,1 49166U 21082AN  23064.30413791  .00000313  00000-0  34045-4 0  9999,2 49166  70.0015 168.9200 0002430 273.3092  86.7789 14.98335448 82848,6950.176,96.107,573.73,570.352,0.0
49166.0,STARLINK-3089,PAYLOAD,2023-03-05 16:54:45,14.98336119,0.0002585,70.0009,167.909,268.5917,91.4946,3.834e-05,3.65e-06,0.0,0 STARLINK-3089,1 49166U 21082AN  23064.70469608  .00000365  00000-0  38340-4 0  9990,2 49166  70.0009 167.9090 0002585 268.5917  91.4946 14.98336119 82901,6950.174,96.107,573.836,570.242,0.0
49166.0,STARLINK-3089,PAYLOAD,2023-03-06 12:08:22,14.98331683,0.0002801,70.0002,165.8905,264.8549,95.2291,0.00021478,2.471e-05,0.0,0 STARLINK-3089,1 49166U 21082AN  23065.50581389  .00002471  00000-0  21478-3 0  9993,2 49166  70.0002 165.8905 0002801 264.8549  95.2291 14.98331683 83027,6950.188,96.107,573.999,570.106,0.0
49166.0,STARLINK-3089,PAYLOAD,2023-03-07 05:45:52,14.98255173,0.0002935,70.0003,164.0388,257.9333,102.1498,0.001646,0.00019564,0.0,0 STARLINK-3089,1 49166U 21082AN  23066.24019433  .00019564  00000-0  16460-2 0  9996,2 49166  70.0003 164.0388 0002935 257.9333 102.1498 14.98255173 83134,6950.424,96.112,574.329,570.249,0.0
49166.0,STARLINK-3089,PAYLOAD,2023-03-07 08:58:07,14.98321854,0.0002663,69.9999,163.7016,266.6968,93.3887,0.00026284,3.044e-05,0.0,0 STARLINK-3089,1 49166U 21082AN  23066.37369931  .00003044  00000-0  26284-3 0  9993,2 49166  69.9999 163.7016 0002663 266.6968  93.3887 14.98321854 83153,6950.218,96.108,573.934,570.232,0.0
49166.0,STARLINK-3089,PAYLOAD,2023-03-07 10:34:15,14.98314698,0.0002758,69.9997,163.5332,264.9783,95.1061,0.00041168,4.821e-05,0.0,0 STARLINK-3089,1 49166U 21082AN  23066.44046232  .00004821  00000-0  41168-3 0  9999,2 49166  69.9997 163.5332 0002758 264.9783  95.1061 14.98314698 83164,6950.24,96.108,574.022,570.188,0.0
49166.0,STARLINK-3089,PAYLOAD,2023-03-07 23:23:19,14.98333245,0.0002889,69.9996,162.1867,269.5323,90.5505,7.3059e-05,7.79e-06,0.0,0 STARLINK-3089,1 49166U 21082AN  23066.97453435  .00000779  00000-0  73059-4 0  9997,2 49166  69.9996 162.1867 0002889 269.5323  90.5505 14.98333245 83247,6950.183,96.107,574.056,570.04,0.0
49166.0,STARLINK-3089,PAYLOAD,2023-03-08 10:36:16,14.9832944,0.0002659,70.0007,161.011,265.8797,94.2058,3.4262e-05,3.16e-06,0.0,0 STARLINK-3089,1 49166U 21082AN  23067.44185857  .00000316  00000-0  34262-4 0  9990,2 49166  70.0007 161.0110 0002659 265.8797  94.2058 14.98329440 83315,6950.195,96.107,573.908,570.212,0.0
49166.0,STARLINK-3089,PAYLOAD,2023-03-08 23:25:21,14.98331202,0.0002605,70.0002,159.6638,266.8048,93.2813,5.8018e-05,5.99e-06,0.0,0 STARLINK-3089,1 49166U 21082AN  23067.97593791  .00000599  00000-0  58018-4 0  9996,2 49166  70.0002 159.6638 0002605 266.8048  93.2813 14.98331202 83394,6950.189,96.107,573.865,570.244,0.0
49166.0,STARLINK-3089,PAYLOAD,2023-03-09 15:26:40,14.9833838,0.0002727,70.0006,157.9807,254.0383,106.0476,0.00021629,2.489e-05,0.0,0 STARLINK-3089,1 49166U 21082AN  23068.64352741  .00002489  00000-0  21629-3 0  9996,2 49166  70.0006 157.9807 0002727 254.0383 106.0476 14.98338380 83496,6950.167,96.106,573.927,570.137,0.0
